NOAA 14                 
1 23455U 94089A   24290.90480301  .00000369  00000+0  21389-3 0  9994
2 23455  98.4431 280.2234 0010229  38.2329 321.9569 14.14470682537201
NOAA 14 DEB             
1 38732U 94089D   24290.19900206  .00008405  00000+0  33545-2 0  9995
2 38732  98.6530  15.8911 0011293  18.8502 341.3095 14.28687217633992
